{
    "links": {
        "self": "http://www.neowsapp.com/rest/v1/neo/3693554?api_key=iIulBulltgU6a56xZRHN4H3l9WmuAYTsLGpBGhQ2"
    },
    "id": "3693554",
    "neo_reference_id": "3693554",
    "name": "(2014 TK64)",
    "designation": "2014 TK64",
    "nasa_jpl_url": "http://ssd.jpl.nasa.gov/sbdb.cgi?sstr=3693554",
    "absolute_magnitude_h": 23.3,
    "estimated_diameter": {
        "kilometers": {
            "estimated_diameter_min": 0.058150704,
            "estimated_diameter_max": 0.130028927
        },
        "meters": {
            "estimated_diameter_min": 58.1507039646,
            "estimated_diameter_max": 130.0289270043
        },
        "miles": {
            "estimated_diameter_min": 0.0361331611,
            "estimated_diameter_max": 0.0807962044
        },
        "feet": {
            "estimated_diameter_min": 190.7831555951,
            "estimated_diameter_max": 426.6041048727
        }
    },
    "is_potentially_hazardous_asteroid": false,
    "close_approach_data": [
        {
            "close_approach_date": "2014-11-13",
            "close_approach_date_full": "2014-Nov-13 00:35",
            "epoch_date_close_approach": 1415838900000,
            "relative_velocity": {
                "kilometers_per_second": "12.0339624533",
                "kilometers_per_hour": "43322.2648319772",
                "miles_per_hour": "26918.7706118472"
            },
            "miss_distance": {
                "astronomical": "0.1216606043",
                "lunar": "47.3259750727",
                "kilometers": "18200167.266192841",
                "miles": "11309059.5311535658"
            },
            "orbiting_body": "Earth"
        },
        {
            "close_approach_date": "2190-12-27",
            "close_approach_date_full": "2190-Dec-27 01:11",
            "epoch_date_close_approach": 6973693860000,
            "relative_velocity": {
                "kilometers_per_second": "12.3185415713",
                "kilometers_per_hour": "44346.749656608",
                "miles_per_hour": "27555.3456407962"
            },
            "miss_distance": {
                "astronomical": "0.2262458601",
                "lunar": "88.0096395789",
                "kilometers": "33845898.767277987",
                "miles": "21030866.2797587406"
            },
            "orbiting_body": "Earth"
        }
    ],
    "orbital_data": {
        "orbit_id": "6",
        "orbit_determination_date": "2017-04-06 08:38:07",
        "first_observation_date": "2014-10-15",
        "last_observation_date": "2014-10-22",
        "data_arc_in_days": 7,
        "observations_used": 17,
        "orbit_uncertainty": "9",
        "minimum_orbit_intersection": ".0437413",
        "jupiter_tisserand_invariant": "3.621",
        "epoch_osculation": "2456948.5",
        "eccentricity": ".6067332700689591",
        "semi_major_axis": "1.962679241502816",
        "inclination": "6.717559705305187",
        "ascending_node_longitude": "16.22302584294398",
        "orbital_period": "1004.320715178403",
        "perihelion_distance": ".7718564472093483",
        "perihelion_argument": "88.43650619113596",
        "aphelion_distance": "3.153502035796284",
        "perihelion_time": "2457012.433529254931",
        "mean_anomaly": "337.0829475246991",
        "mean_motion": ".3584512343111945",
        "equinox": "J2000",
        "orbit_class": {
            "orbit_class_type": "APO",
            "orbit_class_description": "Near-Earth asteroid orbits which cross the Earth’s orbit similar to that of 1862 Apollo",
            "orbit_class_range": "a (semi-major axis) > 1.0 AU; q (perihelion) < 1.017 AU"
        }
    },
    "is_sentry_object": false
}